{
    "links": {
        "self": "http://www.neowsapp.com/rest/v1/neo/3888755?api_key=iIulBulltgU6a56xZRHN4H3l9WmuAYTsLGpBGhQ2"
    },
    "id": "3888755",
    "neo_reference_id": "3888755",
    "name": "(2019 UQ12)",
    "designation": "2019 UQ12",
    "nasa_jpl_url": "http://ssd.jpl.nasa.gov/sbdb.cgi?sstr=3888755",
    "absolute_magnitude_h": 23.8,
    "estimated_diameter": {
        "kilometers": {
            "estimated_diameter_min": 0.046190746,
            "estimated_diameter_max": 0.1032856481
        },
        "meters": {
            "estimated_diameter_min": 46.1907460282,
            "estimated_diameter_max": 103.2856480504
        },
        "miles": {
            "estimated_diameter_min": 0.0287015901,
            "estimated_diameter_max": 0.0641787064
        },
        "feet": {
            "estimated_diameter_min": 151.544447199,
            "estimated_diameter_max": 338.8636855496
        }
    },
    "is_potentially_hazardous_asteroid": false,
    "close_approach_data": [
        {
            "close_approach_date": "2016-01-02",
            "close_approach_date_full": "2016-Jan-02 22:29",
            "epoch_date_close_approach": 1451773740000,
            "relative_velocity": {
                "kilometers_per_second": "17.8847515467",
                "kilometers_per_hour": "64385.1055680624",
                "miles_per_hour": "40006.4007347774"
            },
            "miss_distance": {
                "astronomical": "0.4070542212",
                "lunar": "158.3440920468",
                "kilometers": "60894444.466028844",
                "miles": "37838053.2173482872"
            },
            "orbiting_body": "Earth"
        },
        {
            "close_approach_date": "2019-11-23",
            "close_approach_date_full": "2019-Nov-23 21:39",
            "epoch_date_close_approach": 1574545140000,
            "relative_velocity": {
                "kilometers_per_second": "7.6504842671",
                "kilometers_per_hour": "27541.7433614278",
                "miles_per_hour": "17113.3682569939"
            },
            "miss_distance": {
                "astronomical": "0.1025759086",
                "lunar": "39.9020284454",
                "kilometers": "15345137.439874682",
                "miles": "9535026.2600953316"
            },
            "orbiting_body": "Earth"
        },
        {
            "close_approach_date": "2023-10-01",
            "close_approach_date_full": "2023-Oct-01 19:11",
            "epoch_date_close_approach": 1696187460000,
            "relative_velocity": {
                "kilometers_per_second": "17.9214950869",
                "kilometers_per_hour": "64517.3823128702",
                "miles_per_hour": "40088.5923599054"
            },
            "miss_distance": {
                "astronomical": "0.3484069082",
                "lunar": "135.5302872898",
                "kilometers": "52120931.360005534",
                "miles": "32386444.9676990092"
            },
            "orbiting_body": "Earth"
        }
    ],
    "orbital_data": {
        "orbit_id": "7",
        "orbit_determination_date": "2019-12-29 07:25:36",
        "first_observation_date": "2019-10-21",
        "last_observation_date": "2019-12-23",
        "data_arc_in_days": 63,
        "observations_used": 32,
        "orbit_uncertainty": "6",
        "minimum_orbit_intersection": ".074075",
        "jupiter_tisserand_invariant": "3.201",
        "epoch_osculation": "2459000.5",
        "eccentricity": ".5873726904881484",
        "semi_major_axis": "2.491429433587907",
        "inclination": "6.726481715209392",
        "ascending_node_longitude": "195.4714691943545",
        "orbital_period": "1436.386494890176",
        "perihelion_distance": "1.028031824020014",
        "perihelion_argument": "222.455097019589",
        "aphelion_distance": "3.954827043155799",
        "perihelion_time": "2458810.981957089502",
        "mean_anomaly": "47.49870295389815",
        "mean_motion": ".2506289228426122",
        "equinox": "J2000",
        "orbit_class": {
            "orbit_class_type": "AMO",
            "orbit_class_description": "Near-Earth asteroid orbits similar to that of 1221 Amor",
            "orbit_class_range": "1.017 AU < q (perihelion) < 1.3 AU"
        }
    },
    "is_sentry_object": false
}